*******************************************************************************
Ephemeris / WWW_USER Mon Mar 24 07:26:23 2025 Pasadena, USA      / Horizons    
*******************************************************************************
Target body name: (2018 PN20)                     {source: JPL#3}
Center body name: Earth (399)                     {source: DE441}
Center-site name: Mauna Kea
*******************************************************************************
Start time      : A.D. 2018-Sep-03 04:45:00.0000 UT      
Stop  time      : A.D. 2018-Sep-03 15:57:00.0000 UT      
Step-size       : 1 minutes
*******************************************************************************
Target pole/equ : undefined
Target radii    : undefined                                                    
Center geodetic : 204.5278, 19.8260847, 4.21024   {E-lon(deg),Lat(deg),Alt(km)}
Center cylindric: 204.5278, 6006.35451, 2151.0229 {E-lon(deg),Dxy(km),Dz(km)}
Center pole/equ : ITRF93                          {East-longitude positive}
Center radii    : 6378.137, 6378.137, 6356.752 km {Equator_a, b, pole_c}       
Target primary  : Sun
Vis. interferer : MOON (R_eq= 1737.400) km        {source: DE441}
Rel. light bend : Sun                             {source: DE441}
Rel. lght bnd GM: 1.3271E+11 km^3/s^2                                          
Small-body perts: Yes                             {source: SB441-N16}
Atmos refraction: NO (AIRLESS)
RA format       : HMS
Time format     : CAL 
Calendar mode   : Mixed Julian/Gregorian
RTS-only print  : NO       
EOP file        : eop.250321.p250617                                           
EOP coverage    : DATA-BASED 1962-JAN-20 TO 2025-MAR-21. PREDICTS-> 2025-JUN-16
Units conversion: 1 au= 149597870.700 km, c= 299792.458 km/s, 1 day= 86400.0 s 
Table cut-offs 1: Elevation (-90.0deg=NO ),Airmass (>38.000=NO), Daylight (YES)
Table cut-offs 2: Solar elongation (  0.0,180.0=NO ),Local Hour Angle( 0.0=NO )
Table cut-offs 3: RA/DEC angular rate (     0.0=NO )                           
*******************************************************************************
Initial IAU76/J2000 heliocentric ecliptic osculating elements (au, days, deg.):
  EPOCH=  2458343.5 ! 2018-Aug-13.00 (TDB)         Residual RMS= .1225         
   EC= .3775096637251725   QR= 1.051585063958075   TP= 2458346.3972912203      
   OM= 142.6884316149991   W=  180.4368328240348   IN= 18.91630320954361       
  Equivalent ICRF heliocentric cartesian coordinates (au, au/d):
   X= 8.077039416640637E-01  Y=-6.245728834467501E-01  Z=-2.534674905132982E-01
  VX= 1.177737749455786E-02 VY= 1.576958466977457E-02 VZ=-1.142216194306418E-04
Asteroid physical parameters (km, seconds, rotational period in hours):        
   GM= n.a.                RAD= n.a.               ROTPER= n.a.                
   H= 25.1                 G= .150                 B-V= n.a.                   
                           ALBEDO= n.a.            STYP= n.a.                  
*******************************************************************************
 Date__(UT)__HR:MN     R.A._________(ICRF)_________DEC
******************************************************
$$SOE
 2018-Sep-03 15:00 Am  02 45 32.977197 -54 58 21.40625
 2018-Sep-03 15:01 Am  02 45 33.141771 -54 58 21.69275
 2018-Sep-03 15:02 Am  02 45 33.306358 -54 58 21.97825
 2018-Sep-03 15:03 Am  02 45 33.470958 -54 58 22.26276
 2018-Sep-03 15:04 Am  02 45 33.635572 -54 58 22.54627
 2018-Sep-03 15:05 Am  02 45 33.800200 -54 58 22.82878
 2018-Sep-03 15:06 Am  02 45 33.964843 -54 58 23.11030
 2018-Sep-03 15:07 Am  02 45 34.129501 -54 58 23.39082
 2018-Sep-03 15:08 Am  02 45 34.294176 -54 58 23.67035
 2018-Sep-03 15:09 Am  02 45 34.458867 -54 58 23.94889
 2018-Sep-03 15:10 Am  02 45 34.623576 -54 58 24.22644
 2018-Sep-03 15:11 Am  02 45 34.788302 -54 58 24.50299
 2018-Sep-03 15:12 Am  02 45 34.953047 -54 58 24.77856
 2018-Sep-03 15:13 Am  02 45 35.117811 -54 58 25.05314
 2018-Sep-03 15:14 Am  02 45 35.282594 -54 58 25.32674
 2018-Sep-03 15:15 Am  02 45 35.447398 -54 58 25.59934
 2018-Sep-03 15:16 Am  02 45 35.612222 -54 58 25.87097
 2018-Sep-03 15:17 Am  02 45 35.777068 -54 58 26.14161
 2018-Sep-03 15:18 Am  02 45 35.941936 -54 58 26.41127
 2018-Sep-03 15:19 Nm  02 45 36.106826 -54 58 26.67994
 2018-Sep-03 15:20 Nm  02 45 36.271739 -54 58 26.94764
 2018-Sep-03 15:21 Nm  02 45 36.436676 -54 58 27.21436
 2018-Sep-03 15:22 Nm  02 45 36.601637 -54 58 27.48010
 2018-Sep-03 15:23 Nm  02 45 36.766622 -54 58 27.74486
 2018-Sep-03 15:24 Nm  02 45 36.931633 -54 58 28.00865
 2018-Sep-03 15:25 Nm  02 45 37.096671 -54 58 28.27147
 2018-Sep-03 15:26 Nm  02 45 37.261734 -54 58 28.53331
 2018-Sep-03 15:27 Nm  02 45 37.426825 -54 58 28.79419
 2018-Sep-03 15:28 Nm  02 45 37.591943 -54 58 29.05409
 2018-Sep-03 15:29 Nm  02 45 37.757089 -54 58 29.31302
 2018-Sep-03 15:30 Nm  02 45 37.922265 -54 58 29.57099
 2018-Sep-03 15:31 Nm  02 45 38.087469 -54 58 29.82799
 2018-Sep-03 15:32 Nm  02 45 38.252704 -54 58 30.08403
 2018-Sep-03 15:33 Nm  02 45 38.417969 -54 58 30.33911
 2018-Sep-03 15:34 Nm  02 45 38.583264 -54 58 30.59322
 2018-Sep-03 15:35 Nm  02 45 38.748592 -54 58 30.84638
 2018-Sep-03 15:36 Nm  02 45 38.913952 -54 58 31.09857
 2018-Sep-03 15:37 Nm  02 45 39.079344 -54 58 31.34981
 2018-Sep-03 15:38 Nm  02 45 39.244770 -54 58 31.60010
 2018-Sep-03 15:39 Nm  02 45 39.410230 -54 58 31.84943
 2018-Sep-03 15:40 Nm  02 45 39.575724 -54 58 32.09780
 2018-Sep-03 15:41 Nm  02 45 39.741252 -54 58 32.34523
 2018-Sep-03 15:42 Nm  02 45 39.906817 -54 58 32.59171
 2018-Sep-03 15:43 Nm  02 45 40.072417 -54 58 32.83724
 2018-Sep-03 15:44 Nm  02 45 40.238055 -54 58 33.08183
 2018-Sep-03 15:45 Cm  02 45 40.403729 -54 58 33.32547
 2018-Sep-03 15:46 Cm  02 45 40.569441 -54 58 33.56816
 2018-Sep-03 15:47 Cm  02 45 40.735191 -54 58 33.80992
 2018-Sep-03 15:48 Cm  02 45 40.900980 -54 58 34.05074
 2018-Sep-03 15:49 Cm  02 45 41.066809 -54 58 34.29062
 2018-Sep-03 15:50 Cm  02 45 41.232677 -54 58 34.52956
 2018-Sep-03 15:51 Cm  02 45 41.398586 -54 58 34.76757
 2018-Sep-03 15:52 Cm  02 45 41.564536 -54 58 35.00465
 2018-Sep-03 15:53 Cm  02 45 41.730528 -54 58 35.24080
 2018-Sep-03 15:54 Cm  02 45 41.896562 -54 58 35.47602
 2018-Sep-03 15:55 Cm  02 45 42.062638 -54 58 35.71031
 2018-Sep-03 15:56 Cm  02 45 42.228757 -54 58 35.94367
 2018-Sep-03 15:57 Cm  02 45 42.394921 -54 58 36.17612
